STARLINK-36749          
1 67734U 26026P   26062.50001156 -.01840641  00000+0 -18705-1 0  9994
2 67734  97.2839 116.8773 0001749  74.6995  38.3856 15.68534977  4317
STARLINK-36691          
1 67735U 26026Q   26062.50001156 -.01850156  00000+0 -13902-1 0  9991
2 67735  97.2842 116.9040 0001727  84.3215 100.9876 15.75638476  4459
STARLINK-36317          
1 67736U 26026R   26062.50001156 -.01851817  00000+0 -14071-1 0  9995
2 67736  97.2842 116.8992 0001734  79.0673  95.6148 15.75387135  4312
STARLINK-36330          
1 67737U 26026S   26062.50001156 -.01851764  00000+0 -13854-1 0  9995
2 67737  97.2843 116.9061 0001742  86.8979 105.0698 15.75740560  4317
STARLINK-36327          
1 67738U 26026T   26062.50001156 -.01850176  00000+0 -13665-1 0  9992
2 67738  97.2843 116.9102 0001620  85.8299 115.3433 15.76031560  4318
STARLINK-36329          
1 67739U 26026U   26062.50001156 -.01847823  00000+0 -13034-1 0  9998
2 67739  97.2856 116.9269 0001669  91.1865 161.8682 15.77062133  4312
STARLINK-36737          
1 67740U 26026V   26062.50001156 -.01846675  00000+0 -13544-1 0  9990
2 67740  97.2844 116.9125 0001665  84.8286 125.7188 15.76181768  4319
STARLINK-36740          
1 67741U 26026W   26062.50001156 -.01840035  00000+0 -16229-1 0  9998
2 67741  97.2845 116.9165 0001718  87.5726 127.4339 15.71916000  4310
STARLINK-36693          
1 67742U 26026X   26062.50001156 -.01842223  00000+0 -15794-1 0  9996
2 67742  97.2845 116.9101 0001701  86.0512 111.4984 15.72585747  4455
STARLINK-36717          
1 67743U 26026Y   26062.50001156 -.01843987  00000+0 -14436-1 0  9997
2 67743  97.2844 116.9195 0001584  85.7420 140.3513 15.74693480  4456
STARLINK-36692          
1 67744U 26026Z   26062.50001156 -.01843653  00000+0 -15231-1 0  9992
2 67744  97.2847 116.9143 0001661  83.8836 127.7723 15.73451598  4317
2026-027A               
1 67746U 26027A   26062.50567189  .00011365  00000+0  56826-3 0  9999
2 67746  97.4895 191.5851 0009797 216.6159 143.4406 15.17562531  2927
2026-027B               
1 67747U 26027B   26062.50439110  .00011377  00000+0  56721-3 0  9999
2 67747  97.4890 191.5853 0009917 219.1258 140.9259 15.17663059  2922
2026-027C               
1 67748U 26027C   26062.50307664  .00008109  00000+0  40481-3 0  9993
2 67748  97.4902 191.5900 0010259 221.6590 138.3863 15.17712343  2921
2026-027D               
1 67749U 26027D   26062.50050660  .00012902  00000+0  63648-3 0  9991
2 67749  97.4897 191.5923 0009973 226.8802 133.1599 15.18000601  2875
2026-027E               
1 67750U 26027E   26062.50054265  .00011431  00000+0  56500-3 0  9993
2 67750  97.4908 191.5951 0009155 227.7964 132.2494 15.17969978  2922
2026-027F               
1 67751U 26027F   26062.49885086  .00018695  00000+0  91409-3 0  9991
2 67751  97.4908 191.5979 0010339 228.3716 131.6633 15.18223684  2927
