[{"OBJECT_NAME":"STARLINK-36749","OBJECT_ID":"2026-026P","EPOCH":"2026-03-03T12:00:00.998784","MEAN_MOTION":15.68534977,"ECCENTRICITY":0.0001749,"INCLINATION":97.2839,"RA_OF_ASC_NODE":116.8773,"ARG_OF_PERICENTER":74.6995,"MEAN_ANOMALY":38.3856,"EPHEMERIS_TYPE":0,"CLASSIFICATION_TYPE":"U","NORAD_CAT_ID":67734,"ELEMENT_SET_NO":999,"REV_AT_EPOCH":431,"BSTAR":-0.018705,"MEAN_MOTION_DOT":-0.01840641,"MEAN_MOTION_DDOT":0},{"OBJECT_NAME":"STARLINK-36691","OBJECT_ID":"2026-026Q","EPOCH":"2026-03-03T12:00:00.998784","MEAN_MOTION":15.75638476,"ECCENTRICITY":0.0001727,"INCLINATION":97.2842,"RA_OF_ASC_NODE":116.904,"ARG_OF_PERICENTER":84.3215,"MEAN_ANOMALY":100.9876,"EPHEMERIS_TYPE":0,"CLASSIFICATION_TYPE":"U","NORAD_CAT_ID":67735,"ELEMENT_SET_NO":999,"REV_AT_EPOCH":445,"BSTAR":-0.013902,"MEAN_MOTION_DOT":-0.01850156,"MEAN_MOTION_DDOT":0},{"OBJECT_NAME":"STARLINK-36317","OBJECT_ID":"2026-026R","EPOCH":"2026-03-03T12:00:00.998784","MEAN_MOTION":15.75387135,"ECCENTRICITY":0.0001734,"INCLINATION":97.2842,"RA_OF_ASC_NODE":116.8992,"ARG_OF_PERICENTER":79.0673,"MEAN_ANOMALY":95.6148,"EPHEMERIS_TYPE":0,"CLASSIFICATION_TYPE":"U","NORAD_CAT_ID":67736,"ELEMENT_SET_NO":999,"REV_AT_EPOCH":431,"BSTAR":-0.014071,"MEAN_MOTION_DOT":-0.01851817,"MEAN_MOTION_DDOT":0},{"OBJECT_NAME":"STARLINK-36330","OBJECT_ID":"2026-026S","EPOCH":"2026-03-03T12:00:00.998784","MEAN_MOTION":15.7574056,"ECCENTRICITY":0.0001742,"INCLINATION":97.2843,"RA_OF_ASC_NODE":116.9061,"ARG_OF_PERICENTER":86.8979,"MEAN_ANOMALY":105.0698,"EPHEMERIS_TYPE":0,"CLASSIFICATION_TYPE":"U","NORAD_CAT_ID":67737,"ELEMENT_SET_NO":999,"REV_AT_EPOCH":431,"BSTAR":-0.013854,"MEAN_MOTION_DOT":-0.01851764,"MEAN_MOTION_DDOT":0},{"OBJECT_NAME":"STARLINK-36327","OBJECT_ID":"2026-026T","EPOCH":"2026-03-03T12:00:00.998784","MEAN_MOTION":15.7603156,"ECCENTRICITY":0.000162,"INCLINATION":97.2843,"RA_OF_ASC_NODE":116.9102,"ARG_OF_PERICENTER":85.8299,"MEAN_ANOMALY":115.3433,"EPHEMERIS_TYPE":0,"CLASSIFICATION_TYPE":"U","NORAD_CAT_ID":67738,"ELEMENT_SET_NO":999,"REV_AT_EPOCH":431,"BSTAR":-0.013665,"MEAN_MOTION_DOT":-0.01850176,"MEAN_MOTION_DDOT":0},{"OBJECT_NAME":"STARLINK-36329","OBJECT_ID":"2026-026U","EPOCH":"2026-03-03T12:00:00.998784","MEAN_MOTION":15.77062133,"ECCENTRICITY":0.0001669,"INCLINATION":97.2856,"RA_OF_ASC_NODE":116.9269,"ARG_OF_PERICENTER":91.1865,"MEAN_ANOMALY":161.8682,"EPHEMERIS_TYPE":0,"CLASSIFICATION_TYPE":"U","NORAD_CAT_ID":67739,"ELEMENT_SET_NO":999,"REV_AT_EPOCH":431,"BSTAR":-0.013034,"MEAN_MOTION_DOT":-0.01847823,"MEAN_MOTION_DDOT":0},{"OBJECT_NAME":"STARLINK-36737","OBJECT_ID":"2026-026V","EPOCH":"2026-03-03T12:00:00.998784","MEAN_MOTION":15.76181768,"ECCENTRICITY":0.0001665,"INCLINATION":97.2844,"RA_OF_ASC_NODE":116.9125,"ARG_OF_PERICENTER":84.8286,"MEAN_ANOMALY":125.7188,"EPHEMERIS_TYPE":0,"CLASSIFICATION_TYPE":"U","NORAD_CAT_ID":67740,"ELEMENT_SET_NO":999,"REV_AT_EPOCH":431,"BSTAR":-0.013544,"MEAN_MOTION_DOT":-0.01846675,"MEAN_MOTION_DDOT":0},{"OBJECT_NAME":"STARLINK-36740","OBJECT_ID":"2026-026W","EPOCH":"2026-03-03T12:00:00.998784","MEAN_MOTION":15.71916,"ECCENTRICITY":0.0001718,"INCLINATION":97.2845,"RA_OF_ASC_NODE":116.9165,"ARG_OF_PERICENTER":87.5726,"MEAN_ANOMALY":127.4339,"EPHEMERIS_TYPE":0,"CLASSIFICATION_TYPE":"U","NORAD_CAT_ID":67741,"ELEMENT_SET_NO":999,"REV_AT_EPOCH":431,"BSTAR":-0.016229,"MEAN_MOTION_DOT":-0.01840035,"MEAN_MOTION_DDOT":0},{"OBJECT_NAME":"STARLINK-36693","OBJECT_ID":"2026-026X","EPOCH":"2026-03-03T12:00:00.998784","MEAN_MOTION":15.72585747,"ECCENTRICITY":0.0001701,"INCLINATION":97.2845,"RA_OF_ASC_NODE":116.9101,"ARG_OF_PERICENTER":86.0512,"MEAN_ANOMALY":111.4984,"EPHEMERIS_TYPE":0,"CLASSIFICATION_TYPE":"U","NORAD_CAT_ID":67742,"ELEMENT_SET_NO":999,"REV_AT_EPOCH":445,"BSTAR":-0.015794,"MEAN_MOTION_DOT":-0.01842223,"MEAN_MOTION_DDOT":0},{"OBJECT_NAME":"STARLINK-36717","OBJECT_ID":"2026-026Y","EPOCH":"2026-03-03T12:00:00.998784","MEAN_MOTION":15.7469348,"ECCENTRICITY":0.0001584,"INCLINATION":97.2844,"RA_OF_ASC_NODE":116.9195,"ARG_OF_PERICENTER":85.742,"MEAN_ANOMALY":140.3513,"EPHEMERIS_TYPE":0,"CLASSIFICATION_TYPE":"U","NORAD_CAT_ID":67743,"ELEMENT_SET_NO":999,"REV_AT_EPOCH":445,"BSTAR":-0.014436,"MEAN_MOTION_DOT":-0.01843987,"MEAN_MOTION_DDOT":0},{"OBJECT_NAME":"STARLINK-36692","OBJECT_ID":"2026-026Z","EPOCH":"2026-03-03T12:00:00.998784","MEAN_MOTION":15.73451598,"ECCENTRICITY":0.0001661,"INCLINATION":97.2847,"RA_OF_ASC_NODE":116.9143,"ARG_OF_PERICENTER":83.8836,"MEAN_ANOMALY":127.7723,"EPHEMERIS_TYPE":0,"CLASSIFICATION_TYPE":"U","NORAD_CAT_ID":67744,"ELEMENT_SET_NO":999,"REV_AT_EPOCH":431,"BSTAR":-0.015231,"MEAN_MOTION_DOT":-0.01843653,"MEAN_MOTION_DDOT":0},{"OBJECT_NAME":"2026-027A","OBJECT_ID":"2026-027A","EPOCH":"2026-03-03T12:08:10.051296","MEAN_MOTION":15.17562531,"ECCENTRICITY":0.0009797,"INCLINATION":97.4895,"RA_OF_ASC_NODE":191.5851,"ARG_OF_PERICENTER":216.6159,"MEAN_ANOMALY":143.4406,"EPHEMERIS_TYPE":0,"CLASSIFICATION_TYPE":"U","NORAD_CAT_ID":67746,"ELEMENT_SET_NO":999,"REV_AT_EPOCH":292,"BSTAR":0.00056826,"MEAN_MOTION_DOT":0.00011365,"MEAN_MOTION_DDOT":0},{"OBJECT_NAME":"2026-027B","OBJECT_ID":"2026-027B","EPOCH":"2026-03-03T12:06:19.391040","MEAN_MOTION":15.17663059,"ECCENTRICITY":0.0009917,"INCLINATION":97.489,"RA_OF_ASC_NODE":191.5853,"ARG_OF_PERICENTER":219.1258,"MEAN_ANOMALY":140.9259,"EPHEMERIS_TYPE":0,"CLASSIFICATION_TYPE":"U","NORAD_CAT_ID":67747,"ELEMENT_SET_NO":999,"REV_AT_EPOCH":292,"BSTAR":0.00056721,"MEAN_MOTION_DOT":0.00011377,"MEAN_MOTION_DDOT":0},{"OBJECT_NAME":"2026-027C","OBJECT_ID":"2026-027C","EPOCH":"2026-03-03T12:04:25.821696","MEAN_MOTION":15.17712343,"ECCENTRICITY":0.0010259,"INCLINATION":97.4902,"RA_OF_ASC_NODE":191.59,"ARG_OF_PERICENTER":221.659,"MEAN_ANOMALY":138.3863,"EPHEMERIS_TYPE":0,"CLASSIFICATION_TYPE":"U","NORAD_CAT_ID":67748,"ELEMENT_SET_NO":999,"REV_AT_EPOCH":292,"BSTAR":0.00040481,"MEAN_MOTION_DOT":8.109e-5,"MEAN_MOTION_DDOT":0},{"OBJECT_NAME":"2026-027D","OBJECT_ID":"2026-027D","EPOCH":"2026-03-03T12:00:43.770240","MEAN_MOTION":15.18000601,"ECCENTRICITY":0.0009973,"INCLINATION":97.4897,"RA_OF_ASC_NODE":191.5923,"ARG_OF_PERICENTER":226.8802,"MEAN_ANOMALY":133.1599,"EPHEMERIS_TYPE":0,"CLASSIFICATION_TYPE":"U","NORAD_CAT_ID":67749,"ELEMENT_SET_NO":999,"REV_AT_EPOCH":287,"BSTAR":0.00063648,"MEAN_MOTION_DOT":0.00012902,"MEAN_MOTION_DDOT":0},{"OBJECT_NAME":"2026-027E","OBJECT_ID":"2026-027E","EPOCH":"2026-03-03T12:00:46.884960","MEAN_MOTION":15.17969978,"ECCENTRICITY":0.0009155,"INCLINATION":97.4908,"RA_OF_ASC_NODE":191.5951,"ARG_OF_PERICENTER":227.7964,"MEAN_ANOMALY":132.2494,"EPHEMERIS_TYPE":0,"CLASSIFICATION_TYPE":"U","NORAD_CAT_ID":67750,"ELEMENT_SET_NO":999,"REV_AT_EPOCH":292,"BSTAR":0.000565,"MEAN_MOTION_DOT":0.00011431,"MEAN_MOTION_DDOT":0},{"OBJECT_NAME":"2026-027F","OBJECT_ID":"2026-027F","EPOCH":"2026-03-03T11:58:20.714304","MEAN_MOTION":15.18223684,"ECCENTRICITY":0.0010339,"INCLINATION":97.4908,"RA_OF_ASC_NODE":191.5979,"ARG_OF_PERICENTER":228.3716,"MEAN_ANOMALY":131.6633,"EPHEMERIS_TYPE":0,"CLASSIFICATION_TYPE":"U","NORAD_CAT_ID":67751,"ELEMENT_SET_NO":999,"REV_AT_EPOCH":292,"BSTAR":0.00091409,"MEAN_MOTION_DOT":0.00018695,"MEAN_MOTION_DDOT":0}]
